OBJECT_NAME,OBJECT_ID,EPOCH,MEAN_MOTION,ECCENTRICITY,INCLINATION,RA_OF_ASC_NODE,ARG_OF_PERICENTER,MEAN_ANOMALY,EPHEMERIS_TYPE,CLASSIFICATION_TYPE,NORAD_CAT_ID,ELEMENT_SET_NO,REV_AT_EPOCH,BSTAR,MEAN_MOTION_DOT,MEAN_MOTION_DDOT
SL-12 R/B(2),1985-042D,2026-07-11T23:42:20.043072,14.22010577,.0037235,71.1064,185.1181,290.8828,99.3792,0,U,15772,999,13206,.38257E-5,-.39E-6,0
SL-14 R/B,1985-069B,2026-07-12T05:01:45.982272,14.86533917,.0019868,82.5265,267.8343,136.6030,223.6755,0,U,15945,999,19133,.2323E-4,.231E-5,0
SL-16 R/B,1985-097B,2026-07-12T02:48:20.053728,14.16612184,.0005514,71.0009,238.5939,57.8246,332.0642,0,U,16182,999,10485,-.88506E-5,-.66E-6,0
SL-14 R/B,1986-006B,2026-07-11T21:11:09.339072,14.86966798,.00752225,82.5281,142.8742,219.9848,139.5817,0,U,16496,999,16766,.2454881E-4,.257E-5,0
COSMOS 1743,1986-034A,2026-07-11T18:41:22.325568,15.69339007,.00052985,82.5282,302.5411,186.5765,173.5428,0,U,16719,999,19964,.31278948E-3,.36677E-3,0
SL-14 R/B,1986-046B,2026-07-11T19:16:50.162304,14.85688965,.00232281,82.4837,322.9150,174.0870,186.0625,0,U,16792,999,14483,.25162865E-4,.244E-5,0
SL-14 R/B,1986-055B,2026-07-11T20:57:21.373056,14.85738979,.00173283,82.5201,9.9200,282.3058,198.0232,0,U,16882,999,13780,.25261565E-4,.244E-5,0
AJISAI (EGS),1986-061A,2026-07-12T04:48:46.736352,12.44516662,.0011094,50.0099,70.4801,244.2552,227.0080,0,U,16908,999,48350,-.2519E-4,-.101E-5,0
SL-14 R/B,1987-024B,2026-07-11T23:50:48.838848,14.86230287,.0017549,82.5294,335.9328,204.6710,155.3669,0,U,17567,999,10659,.26268E-4,.256E-5,0
COSMOS 1833,1987-027A,2026-07-11T19:31:48.204768,14.13065553,.00240083,70.9211,65.1077,14.1554,346.0235,0,U,17589,999,2785,.88850383E-4,.118E-5,0
SL-16 R/B,1987-027B,2026-07-11T20:23:57.679296,14.17173183,.00071372,71.0030,14.8558,285.3527,74.6808,0,U,17590,999,3293,-.3498533E-4,-.119E-5,0
SL-14 R/B,1987-038B,2026-07-11T10:42:44.957952,14.85459955,.00207215,82.5009,180.2209,113.7273,246.6120,0,U,17912,999,9760,.26588962E-4,.255E-5,0
COSMOS 1844,1987-041A,2026-07-11T20:33:58.697568,14.14579368,.00315396,70.8996,132.2708,200.0273,159.9613,0,U,17973,999,2114,.11482715E-3,.173E-5,0
SL-14 R/B,1987-055B,2026-07-12T01:47:49.735680,14.85725928,.0019629,82.4974,231.7673,325.9754,34.0202,0,U,18153,999,8840,.21137E-4,.208E-5,0
COSMOS 1867,1987-060A,2026-07-11T17:22:55.373664,14.31518264,.00170703,65.0120,319.3403,282.0225,77.8946,0,U,18187,999,3769,.831397E-5,-.78E-6,0
SL-14 R/B,1988-001B,2026-07-12T03:30:16.572096,14.85625592,.0017903,82.5124,78.2920,181.8420,178.2733,0,U,18749,999,6050,.2187E-4,.214E-5,0
COSMOS 1933,1988-020A,2026-07-11T21:00:58.926528,15.18877042,.00057467,82.5138,127.9851,116.0732,244.1094,0,U,18958,999,6907,.98853042E-4,.2092E-4,0
SL-3 R/B,1988-032B,2026-07-12T02:41:39.948288,15.21017674,.0026223,97.5268,176.1323,156.0765,204.1696,0,U,19046,999,7101,.11253E-3,.2446E-4,0
SL-16 R/B,1988-039B,2026-07-11T08:38:07.831104,14.19631645,.00208005,71.0136,167.0445,155.6640,204.5472,0,U,19120,999,97593,-.64357511E-4,-.184E-5,0
COSMOS 1953,1988-050A,2026-07-11T14:34:43.385376,15.30305195,.0011791,82.5062,33.4006,51.5057,308.7239,0,U,19210,999,5672,.15134349E-3,.4478E-4,0
SL-8 R/B,1988-053B,2026-07-11T15:02:21.510240,14.38977093,.0019605,74.0461,244.0075,30.7363,83.3668,0,U,19257,999,99442,.47256002E-4,.12E-5,0
COSMOS 1975,1988-093A,2026-07-11T21:13:38.162208,15.29637025,.0012557,82.5192,352.8513,92.6562,267.6116,0,U,19573,999,3838,.13202E-3,.3833E-4,0
SL-14 R/B,1988-093B,2026-07-11T19:10:08.516352,14.85758797,.00203132,82.5317,285.5403,351.7863,130.4842,0,U,19574,999,1944,.20027286E-4,.199E-5,0
SL-16 R/B,1988-102B,2026-07-12T03:37:31.050912,14.16167403,.0014482,70.9982,249.6127,190.3323,169.7505,0,U,19650,999,94451,-.92585E-4,-.231E-5,0
INTERCOSMOS 24,1989-080A,2026-07-12T00:48:02.824992,12.59690954,.1187371,82.6047,23.4731,4.2840,356.7394,0,U,20261,999,68245,.67834E-4,.246E-5,0
SL-14 R/B,1989-080C,2026-07-12T02:56:12.006816,12.50578093,.1228594,82.5937,93.2868,260.3235,85.7278,0,U,20262,999,67570,.15957E-4,.55E-6,0
DELTA 1 R/B,1989-089B,2026-07-11T23:31:46.560000,14.50746629,.0070649,97.0634,20.5709,89.9074,271.0219,0,U,20323,999,91375,.48052E-4,.16E-5,0
ARIANE 40 R/B,1990-005H,2026-07-12T03:07:01.624224,14.39939873,.0010061,98.2947,249.9687,183.0738,177.0390,0,U,20443,999,91071,.47928E-4,.109E-5,0
DELTA 2 R/B(1),1990-008B,2026-07-11T23:24:56.494368,15.73093935,.0060492,35.6004,69.3143,345.6004,14.3014,0,U,20453,999,94560,.4929E-3,.79208E-3,0
COSMOS 2058,1990-010A,2026-07-12T05:11:02.385312,15.12146879,.0007799,82.4673,284.6708,262.3168,97.7176,0,U,20465,999,96105,.80663E-4,.142E-4,0
